SL-8 R/B                
1 15483U 85006B   26190.02099968  .00000116  00000+0  47311-4 0  9998
2 15483  74.0450  37.8842 0019265 281.8181 238.1093 14.37843035171460
SL-12 R/B(2)            
1 15772U 85042D   26189.25556829  .00000102  00000+0  67363-4 0  9990
2 15772  71.1061 193.0034 0037200 296.3836  73.8501 14.22009915131539
SL-14 R/B               
1 15945U 85069B   26190.18050145  .00000304  00000+0  31438-4 0  9993
2 15945  82.5268 270.6828 0019660 146.0848 214.1631 14.86532611190884
SL-16 R/B               
1 16182U 85097B   26190.15130801 -.00000231  00000+0 -91662-4 0  9999
2 16182  71.0014 244.8376 0005396  63.5586 326.9225 14.16612733104438
SL-14 R/B               
1 16496U 86006B   26190.25831388  .00000345  00000+0  33897-4 0  9997
2 16496  82.5279 145.3436 0075050 228.8202 130.6528 14.86965378167273
COSMOS 1743             
1 16719U 86034A   26190.29179406  .00047331  00000+0  40671-3 0  9999
2 16719  82.5274 305.1945 0005156 195.2214 164.8893 15.69134331199253
SL-14 R/B               
1 16792U 86046B   26190.31138334  .00000348  00000+0  37183-4 0  9993
2 16792  82.4834 325.2693 0022999 182.3053 177.8062 14.85687770144462
SL-14 R/B               
1 16882U 86055B   26189.90900131  .00000280  00000+0  29376-4 0  9998
2 16882  82.5198  12.7074 0017418 292.9986 182.8451 14.85737462137363
AJISAI (EGS)            
1 16908U 86061A   26190.30805767 -.00000107  00000+0 -66793-4 0  9993
2 16908  50.0097  79.3744 0011101 236.8505 227.9761 12.44516684483149
SL-14 R/B               
1 17567U 87024B   26189.89661776  .00000331  00000+0  34788-4 0  9993
2 17567  82.5292 338.8436 0017306 215.4018 144.6051 14.86228622106132
COSMOS 1833             
1 17589U 87027A   26189.91140605  .00000149  00000+0  10545-3 0  9997
2 17589  70.9211  71.2080 0023803  18.9278 341.2722 14.13064435 27440
SL-16 R/B               
1 17590U 87027B   26189.95602452 -.00000224  00000+0 -87378-4 0  9991
2 17590  71.0028  20.9546 0007134 288.5027  71.5321 14.17173871 32526
SL-14 R/B               
1 17912U 87038B   26189.95399812  .00000284  00000+0  29962-4 0  9993
2 17912  82.5006 182.5685 0020631 121.4092 238.9145 14.85458672 97232
COSMOS 1844             
1 17973U 87041A   26190.31124819  .00000278  00000+0  16937-3 0  9999
2 17973  70.8992 137.6400 0031694 203.5655 156.4017 14.14577804 20786
SL-14 R/B               
1 18153U 87055B   26189.64009800  .00000254  00000+0  26379-4 0  9997
2 18153  82.4976 235.0057 0019909 337.7330  22.3020 14.85724484 87890
COSMOS 1867             
1 18187U 87060A   26189.72023722 -.00000049  00000+0  19263-4 0  9995
2 18187  65.0120 327.7530 0016993 282.0689  77.8491 14.31518085 37261
SL-14 R/B               
1 18749U 88001B   26190.11511613  .00000255  00000+0  26539-4 0  9993
2 18749  82.5128  81.1441 0017605 191.9917 168.0883 14.85624269 60054
COSMOS 1933             
1 18958U 88020A   26190.24046879  .00003065  00000+0  14556-3 0  9994
2 18958  82.5136 130.5950 0005647 122.7796 237.3983 15.18864555 68677
SL-3 R/B                
1 19046U 88032B   26190.28338767  .00002715  00000+0  12462-3 0  9995
2 19046  97.5267 173.3050 0025922 165.7434 194.4539 15.21003447 70589
SL-16 R/B               
1 19120U 88039B   26189.96410451 -.00000059  00000+0 -51520-5 0  9990
2 19120  71.0133 172.1102 0020965 159.3347 200.8631 14.19632138975591
COSMOS 1953             
1 19210U 88050A   26189.99188834  .00004933  00000+0  16699-3 0  9992
2 19210  82.5066  36.0397 0012009  59.6074 300.6352 15.30278057 56326
SL-8 R/B                
1 19257U 88053B   26189.63717395  .00000132  00000+0  51172-4 0  9990
2 19257  74.0464 249.5183 0019507  37.1846  76.7992 14.38976067993994
COSMOS 1975             
1 19573U 88093A   26189.94067927  .00004631  00000+0  15990-3 0  9993
2 19573  82.5196 355.8141 0012548 101.6551 258.6098 15.29611966 37930
SL-14 R/B               
1 19574U 88093B   26190.22002534  .00000284  00000+0  29796-4 0  9990
2 19574  82.5318 287.9609 0020545   0.4190  17.6988 14.85757728 19065
SL-16 R/B               
1 19650U 88102B   26190.18441515 -.00000247  00000+0 -10061-3 0  9992
2 19650  70.9989 255.8550 0014633 194.9065 165.1629 14.16168533944090
INTERCOSMOS 24          
1 20261U 89080A   26190.01554163  .00000375  00000+0  10532-3 0  9997
2 20261  82.6046  25.4380 1187531  11.2877 351.2506 12.59689177682073
SL-14 R/B               
1 20262U 89080C   26190.16221915  .00000062  00000+0  18361-4 0  9992
2 20262  82.5941  95.1891 1228495 267.0981  78.9225 12.50577707675338
DELTA 1 R/B             
1 20323U 89089B   26190.01461083  .00000212  00000+0  60741-4 0  9991
2 20323  97.0635  18.0798 0070601  99.0691 261.8505 14.50745304913321
ARIANE 40 R/B           
1 20443U 90005H   26189.72497734  .00000164  00000+0  65445-4 0  9994
2 20443  98.2948 246.6702 0009814 193.3144 166.7787 14.39938771910227
DELTA 2 R/B(1)          
1 20453U 90008B   26189.92897498  .00080241  00000+0  50739-3 0  9994
2 20453  35.6001  89.8186 0061912 317.2568  42.3369 15.72614054945125
