OBJECT_NAME,OBJECT_ID,EPOCH,MEAN_MOTION,ECCENTRICITY,INCLINATION,RA_OF_ASC_NODE,ARG_OF_PERICENTER,MEAN_ANOMALY,EPHEMERIS_TYPE,CLASSIFICATION_TYPE,NORAD_CAT_ID,ELEMENT_SET_NO,REV_AT_EPOCH,BSTAR,MEAN_MOTION_DOT,MEAN_MOTION_DDOT
SL-8 R/B,1985-006B,2026-07-09T00:30:14.372352,14.37843035,.00192651,74.0450,37.8842,281.8181,238.1093,0,U,15483,999,17146,.47310842E-4,.116E-5,0
SL-12 R/B(2),1985-042D,2026-07-08T06:08:01.100256,14.22009915,.00372,71.1061,193.0034,296.3836,73.8501,0,U,15772,999,13153,.67363314E-4,.102E-5,0
SL-14 R/B,1985-069B,2026-07-09T04:19:55.325280,14.86532611,.00196604,82.5268,270.6828,146.0848,214.1631,0,U,15945,999,19088,.31437918E-4,.304E-5,0
SL-16 R/B,1985-097B,2026-07-09T03:37:53.012064,14.16612733,.00053964,71.0014,244.8376,63.5586,326.9225,0,U,16182,999,10443,-.91661842E-4,-.231E-5,0
SL-14 R/B,1986-006B,2026-07-09T06:11:58.319232,14.86965378,.00750506,82.5279,145.3436,228.8202,130.6528,0,U,16496,999,16727,.33897438E-4,.345E-5,0
COSMOS 1743,1986-034A,2026-07-09T07:00:11.006784,15.69134331,.00051562,82.5274,305.1945,195.2214,164.8893,0,U,16719,999,19925,.40671186E-3,.47331E-3,0
SL-14 R/B,1986-046B,2026-07-09T07:28:23.520576,14.85687770,.00229992,82.4834,325.2693,182.3053,177.8062,0,U,16792,999,14446,.37183078E-4,.348E-5,0
SL-14 R/B,1986-055B,2026-07-08T21:48:57.713184,14.85737462,.00174181,82.5198,12.7074,292.9986,182.8451,0,U,16882,999,13736,.29376254E-4,.28E-5,0
AJISAI (EGS),1986-061A,2026-07-09T07:23:36.182688,12.44516684,.00111014,50.0097,79.3744,236.8505,227.9761,0,U,16908,999,48314,-.66793311E-4,-.107E-5,0
SL-14 R/B,1987-024B,2026-07-08T21:31:07.774464,14.86228622,.0017306,82.5292,338.8436,215.4018,144.6051,0,U,17567,999,10613,.34788307E-4,.331E-5,0
COSMOS 1833,1987-027A,2026-07-08T21:52:25.482720,14.13064435,.00238032,70.9211,71.2080,18.9278,341.2722,0,U,17589,999,2744,.10545344E-3,.149E-5,0
SL-16 R/B,1987-027B,2026-07-08T22:56:40.518528,14.17173871,.00071343,71.0028,20.9546,288.5027,71.5321,0,U,17590,999,3252,-.87378339E-4,-.224E-5,0
SL-14 R/B,1987-038B,2026-07-08T22:53:45.437568,14.85458672,.00206313,82.5006,182.5685,121.4092,238.9145,0,U,17912,999,9723,.29961847E-4,.284E-5,0
COSMOS 1844,1987-041A,2026-07-09T07:28:11.843616,14.14577804,.00316942,70.8992,137.6400,203.5655,156.4017,0,U,17973,999,2078,.16936505E-3,.278E-5,0
SL-14 R/B,1987-055B,2026-07-08T15:21:44.467200,14.85724484,.00199092,82.4976,235.0057,337.7330,22.3020,0,U,18153,999,8789,.26379407E-4,.254E-5,0
COSMOS 1867,1987-060A,2026-07-08T17:17:08.495808,14.31518085,.00169938,65.0120,327.7530,282.0689,77.8491,0,U,18187,999,3726,.19263395E-4,-.49E-6,0
SL-14 R/B,1988-001B,2026-07-09T02:45:46.033632,14.85624269,.00176056,82.5128,81.1441,191.9917,168.0883,0,U,18749,999,6005,.26539039E-4,.255E-5,0
COSMOS 1933,1988-020A,2026-07-09T05:46:16.503456,15.18864555,.00056479,82.5136,130.5950,122.7796,237.3983,0,U,18958,999,6867,.14555623E-3,.3065E-4,0
SL-3 R/B,1988-032B,2026-07-09T06:48:04.694688,15.21003447,.00259221,97.5267,173.3050,165.7434,194.4539,0,U,19046,999,7058,.12462194E-3,.2715E-4,0
SL-16 R/B,1988-039B,2026-07-08T23:08:18.629664,14.19632138,.00209655,71.0133,172.1102,159.3347,200.8631,0,U,19120,999,97559,-.5152005E-5,-.59E-6,0
COSMOS 1953,1988-050A,2026-07-08T23:48:19.152576,15.30278057,.00120093,82.5066,36.0397,59.6074,300.6352,0,U,19210,999,5632,.16699235E-3,.4933E-4,0
SL-8 R/B,1988-053B,2026-07-08T15:17:31.829280,14.38976067,.00195075,74.0464,249.5183,37.1846,76.7992,0,U,19257,999,99399,.51171872E-4,.132E-5,0
COSMOS 1975,1988-093A,2026-07-08T22:34:34.688928,15.29611966,.00125483,82.5196,355.8141,101.6551,258.6098,0,U,19573,999,3793,.15990447E-3,.4631E-4,0
SL-14 R/B,1988-093B,2026-07-09T05:16:50.189376,14.85757728,.00205458,82.5318,287.9609,0.4190,17.6988,0,U,19574,999,1906,.29796168E-4,.284E-5,0
SL-16 R/B,1988-102B,2026-07-09T04:25:33.468960,14.16168533,.00146339,70.9989,255.8550,194.9065,165.1629,0,U,19650,999,94409,-.10060826E-3,-.247E-5,0
INTERCOSMOS 24,1989-080A,2026-07-09T00:22:22.796832,12.59689177,.1187531,82.6046,25.4380,11.2877,351.2506,0,U,20261,999,68207,.10532401E-3,.375E-5,0
SL-14 R/B,1989-080C,2026-07-09T03:53:35.734560,12.50577707,.12284951,82.5941,95.1891,267.0981,78.9225,0,U,20262,999,67533,.1836111E-4,.62E-6,0
DELTA 1 R/B,1989-089B,2026-07-09T00:21:02.375712,14.50745304,.00706019,97.0635,18.0798,99.0691,261.8505,0,U,20323,999,91332,.60740704E-4,.212E-5,0
ARIANE 40 R/B,1990-005H,2026-07-08T17:23:58.042176,14.39938771,.00098148,98.2948,246.6702,193.3144,166.7787,0,U,20443,999,91022,.65444576E-4,.164E-5,0
DELTA 2 R/B(1),1990-008B,2026-07-08T22:17:43.438272,15.72614054,.0061912,35.6001,89.8186,317.2568,42.3369,0,U,20453,999,94512,.50739023E-3,.80241E-3,0
